OBJECT_NAME,OBJECT_ID,EPOCH,MEAN_MOTION,ECCENTRICITY,INCLINATION,RA_OF_ASC_NODE,ARG_OF_PERICENTER,MEAN_ANOMALY,EPHEMERIS_TYPE,CLASSIFICATION_TYPE,NORAD_CAT_ID,ELEMENT_SET_NO,REV_AT_EPOCH,BSTAR,MEAN_MOTION_DOT,MEAN_MOTION_DDOT
GLOBALSTAR M069,2007-020C,2026-07-02T13:49:15.421152,12.23471716,.0001974,52.0000,208.5705,182.2432,352.7086,0,U,31573,999,88068,.14985E-3,-.76E-6,0
GLOBALSTAR M072,2007-020D,2026-07-02T15:28:00.341760,11.91658517,.0001574,51.9940,59.0944,9.1170,16.5320,0,U,31574,999,87682,.27745E-3,-.64E-6,0
GLOBALSTAR M066,2007-048C,2026-07-01T20:24:24.636960,12.30387687,.00056632,51.9600,15.8193,74.3636,298.7841,0,U,32265,999,86203,-.2018011E-4,-.97E-6,0
GLOBALSTAR M079,2010-054A,2026-07-02T10:37:52.888800,12.62266386,.0001015,52.0045,62.2295,55.7952,115.3468,0,U,37188,999,72447,.12812E-3,-.81E-6,0
GLOBALSTAR M074,2010-054B,2026-07-02T16:14:50.237376,12.62261872,.0000792,52.0027,60.7798,73.5600,321.5892,0,U,37189,999,72511,.11186E-3,-.84E-6,0
GLOBALSTAR M076,2010-054C,2026-07-02T14:52:50.909952,12.62262023,.0001012,52.0035,61.1577,69.9042,306.2914,0,U,37190,999,72482,.13433E-3,-.8E-6,0
GLOBALSTAR M077,2010-054D,2026-07-02T15:27:46.630944,11.67547928,.000248,51.9935,140.0623,201.2549,329.5141,0,U,37191,999,72294,-.1796E-3,-.88E-6,0
GLOBALSTAR M075,2010-054E,2026-07-02T19:00:13.379328,12.62267531,.0000522,51.9946,102.6802,43.2347,334.2146,0,U,37192,999,72391,.10173E-3,-.86E-6,0
GLOBALSTAR M073,2010-054F,2026-07-02T18:59:15.556128,12.62266761,.0001107,52.0076,16.7948,77.3573,295.4503,0,U,37193,999,72590,.2396E-4,-.99E-6,0
GLOBALSTAR M083,2011-033A,2026-07-02T18:03:29.488896,12.62263801,.0000938,51.9878,325.1200,90.8544,47.2371,0,U,37739,999,69491,.13681E-3,-.79E-6,0
GLOBALSTAR M088,2011-033B,2026-07-02T13:46:09.577344,12.62269222,.0000335,52.0194,232.1306,149.0966,15.0862,0,U,37740,999,69043,.13612E-3,-.79E-6,0
GLOBALSTAR M091,2011-033C,2026-07-02T17:55:31.791936,12.62264139,.0000102,51.9965,194.5448,346.7556,185.5197,0,U,37741,999,69124,-.75438E-4,-.117E-5,0
GLOBALSTAR M085,2011-033D,2026-07-02T15:42:00.069408,12.62264195,.0000479,52.0106,146.1314,11.2216,159.5277,0,U,37742,999,69174,-.48345E-4,-.112E-5,0
GLOBALSTAR M081,2011-033E,2026-07-02T16:20:00.039264,12.62265295,.0000377,51.9937,148.4698,38.3411,132.1336,0,U,37743,999,69189,-.58392E-4,-.114E-5,0
GLOBALSTAR M089,2011-033F,2026-07-02T18:25:11.084160,12.62267463,.0000564,51.9927,102.3613,79.9205,306.7830,0,U,37744,999,69275,.10282E-3,-.85E-6,0
GLOBALSTAR M084,2011-080A,2026-07-02T16:46:17.426784,12.62267704,.000106,52.0026,330.0597,111.1815,263.2103,0,U,38040,999,67072,.5546E-4,-.94E-6,0
GLOBALSTAR M080,2011-080B,2026-07-02T16:04:39.995040,12.62265393,.0000436,52.0079,331.8713,80.9708,292.0816,0,U,38041,999,67084,.42892E-4,-.96E-6,0
GLOBALSTAR M082,2011-080C,2026-07-02T17:14:41.714304,12.62263848,.0000383,52.0081,287.2267,111.1723,52.7414,0,U,38042,999,67155,.15027E-3,-.77E-6,0
GLOBALSTAR M092,2011-080D,2026-07-02T14:02:07.717920,12.62267357,.0000847,52.0100,18.0308,85.3600,309.7871,0,U,38043,999,66999,.93606E-4,-.87E-6,0
GLOBALSTAR M090,2011-080E,2026-07-02T13:17:06.313920,12.62252560,.0000524,52.0133,281.6896,105.7704,267.0066,0,U,38044,999,67165,-.73109E-4,-.117E-5,0
GLOBALSTAR M086,2011-080F,2026-07-02T18:26:27.743424,12.62287504,.0001674,51.9900,280.9397,93.1440,78.7299,0,U,38045,999,67162,.23762E-3,-.61E-6,0
GLOBALSTAR M097,2013-005A,2026-07-02T18:17:33.437184,12.62271336,.0000164,52.0014,195.9248,48.5773,311.5108,0,U,39072,999,61887,-.33069E-4,-.11E-5,0
GLOBALSTAR M093,2013-005B,2026-07-02T17:38:56.141664,12.62266219,.0000343,52.0073,189.3583,32.5888,327.5000,0,U,39073,999,61882,-.39899E-4,-.111E-5,0
GLOBALSTAR M094,2013-005C,2026-07-02T11:56:39.336000,12.62268463,.0000773,51.9958,104.1832,37.5645,322.5275,0,U,39074,999,62040,.31315E-4,-.98E-6,0
GLOBALSTAR M096,2013-005D,2026-07-02T14:10:08.864832,12.62265644,.0000427,52.0050,152.7140,15.1031,344.9848,0,U,39075,999,61933,-.90594E-4,-.12E-5,0
GLOBALSTAR M078,2013-005E,2026-07-02T11:37:21.792864,12.62260201,.0000535,51.9855,237.0279,296.7741,63.3071,0,U,39076,999,61794,.35164E-3,-.41E-6,0
GLOBALSTAR M095,2013-005F,2026-07-02T12:15:49.395168,12.62263885,.0000119,52.0062,234.5721,6.3253,353.7615,0,U,39077,999,61780,.13985E-3,-.79E-6,0
GLOBALSTAR M087,2022-064A,2026-07-02T04:58:41.126016,12.62269302,.000093,52.0011,16.7246,66.5498,293.5466,0,U,52888,999,19303,.1981E-4,-.1E-5,0
