[{"name":"GLOBALSTAR M069","l1":"1 31573U 07020C   26183.57587293 -.00000076  00000+0  14985-3 0  9997","l2":"2 31573  52.0000 208.5705 0001974 182.2432 352.7086 12.23471716880683","cat":"communications"},{"name":"GLOBALSTAR M072","l1":"1 31574U 07020D   26183.64444840 -.00000064  00000+0  27745-3 0  9991","l2":"2 31574  51.9940  59.0944 0001574   9.1170  16.5320 11.91658517876828","cat":"communications"},{"name":"GLOBALSTAR M066","l1":"1 32265U 07048C   26182.85028515 -.00000097  00000+0 -20180-4 0  9992","l2":"2 32265  51.9600  15.8193 0005663  74.3636 298.7841 12.30387687862030","cat":"communications"},{"name":"GLOBALSTAR M079","l1":"1 37188U 10054A   26183.44297325 -.00000081  00000+0  12812-3 0  9999","l2":"2 37188  52.0045  62.2295 0001015  55.7952 115.3468 12.62266386724475","cat":"communications"},{"name":"GLOBALSTAR M074","l1":"1 37189U 10054B   26183.67697034 -.00000084  00000+0  11186-3 0  9992","l2":"2 37189  52.0027  60.7798 0000792  73.5600 321.5892 12.62261872725115","cat":"communications"},{"name":"GLOBALSTAR M076","l1":"1 37190U 10054C   26183.62003368 -.00000080  00000+0  13433-3 0  9993","l2":"2 37190  52.0035  61.1577 0001012  69.9042 306.2914 12.62262023724822","cat":"communications"},{"name":"GLOBALSTAR M077","l1":"1 37191U 10054D   26183.64428971 -.00000088  00000+0 -17960-3 0  9995","l2":"2 37191  51.9935 140.0623 0002480 201.2549 329.5141 11.67547928722947","cat":"communications"},{"name":"GLOBALSTAR M075","l1":"1 37192U 10054E   26183.79182152 -.00000086  00000+0  10173-3 0  9996","l2":"2 37192  51.9946 102.6802 0000522  43.2347 334.2146 12.62267531723919","cat":"communications"},{"name":"GLOBALSTAR M073","l1":"1 37193U 10054F   26183.79115227 -.00000099  00000+0  23960-4 0  9999","l2":"2 37193  52.0076  16.7948 0001107  77.3573 295.4503 12.62266761725901","cat":"communications"},{"name":"GLOBALSTAR M083","l1":"1 37739U 11033A   26183.75242464 -.00000079  00000+0  13681-3 0  9999","l2":"2 37739  51.9878 325.1200 0000938  90.8544  47.2371 12.62263801694916","cat":"communications"},{"name":"GLOBALSTAR M088","l1":"1 37740U 11033B   26183.57372196 -.00000079  00000+0  13612-3 0  9991","l2":"2 37740  52.0194 232.1306 0000335 149.0966  15.0862 12.62269222690435","cat":"communications"},{"name":"GLOBALSTAR M091","l1":"1 37741U 11033C   26183.74689574 -.00000117  00000+0 -75438-4 0  9991","l2":"2 37741  51.9965 194.5448 0000102 346.7556 185.5197 12.62264139691247","cat":"communications"},{"name":"GLOBALSTAR M085","l1":"1 37742U 11033D   26183.65416747 -.00000112  00000+0 -48345-4 0  9994","l2":"2 37742  52.0106 146.1314 0000479  11.2216 159.5277 12.62264195691743","cat":"communications"},{"name":"GLOBALSTAR M081","l1":"1 37743U 11033E   26183.68055601 -.00000114  00000+0 -58392-4 0  9991","l2":"2 37743  51.9937 148.4698 0000377  38.3411 132.1336 12.62265295691899","cat":"communications"},{"name":"GLOBALSTAR M089","l1":"1 37744U 11033F   26183.76748940 -.00000085  00000+0  10282-3 0  9997","l2":"2 37744  51.9927 102.3613 0000564  79.9205 306.7830 12.62267463692758","cat":"communications"},{"name":"GLOBALSTAR M084","l1":"1 38040U 11080A   26183.69881281 -.00000094  00000+0  55460-4 0  9995","l2":"2 38040  52.0026 330.0597 0001060 111.1815 263.2103 12.62267704670720","cat":"communications"},{"name":"GLOBALSTAR M080","l1":"1 38041U 11080B   26183.66990735 -.00000096  00000+0  42892-4 0  9995","l2":"2 38041  52.0079 331.8713 0000436  80.9708 292.0816 12.62265393670844","cat":"communications"},{"name":"GLOBALSTAR M082","l1":"1 38042U 11080C   26183.71853836 -.00000077  00000+0  15027-3 0  9990","l2":"2 38042  52.0081 287.2267 0000383 111.1723  52.7414 12.62263848671558","cat":"communications"},{"name":"GLOBALSTAR M092","l1":"1 38043U 11080D   26183.58481155 -.00000087  00000+0  93606-4 0  9998","l2":"2 38043  52.0100  18.0308 0000847  85.3600 309.7871 12.62267357669994","cat":"communications"},{"name":"GLOBALSTAR M090","l1":"1 38044U 11080E   26183.55354530 -.00000117  00000+0 -73109-4 0  9993","l2":"2 38044  52.0133 281.6896 0000524 105.7704 267.0066 12.62252560671653","cat":"communications"},{"name":"GLOBALSTAR M086","l1":"1 38045U 11080F   26183.76837666 -.00000061  00000+0  23762-3 0  9999","l2":"2 38045  51.9900 280.9397 0001674  93.1440  78.7299 12.62287504671624","cat":"communications"},{"name":"GLOBALSTAR M097","l1":"1 39072U 13005A   26183.76219256 -.00000110  00000+0 -33069-4 0  9996","l2":"2 39072  52.0014 195.9248 0000164  48.5773 311.5108 12.62271336618870","cat":"communications"},{"name":"GLOBALSTAR M093","l1":"1 39073U 13005B   26183.73537201 -.00000111  00000+0 -39899-4 0  9995","l2":"2 39073  52.0073 189.3583 0000343  32.5888 327.5000 12.62266219618821","cat":"communications"},{"name":"GLOBALSTAR M094","l1":"1 39074U 13005C   26183.49767750 -.00000098  00000+0  31315-4 0  9991","l2":"2 39074  51.9958 104.1832 0000773  37.5645 322.5275 12.62268463620406","cat":"communications"},{"name":"GLOBALSTAR M096","l1":"1 39075U 13005D   26183.59038038 -.00000120  00000+0 -90594-4 0  9994","l2":"2 39075  52.0050 152.7140 0000427  15.1031 344.9848 12.62265644619332","cat":"communications"},{"name":"GLOBALSTAR M078","l1":"1 39076U 13005E   26183.48428001 -.00000041  00000+0  35164-3 0  9998","l2":"2 39076  51.9855 237.0279 0000535 296.7741  63.3071 12.62260201617948","cat":"communications"},{"name":"GLOBALSTAR M095","l1":"1 39077U 13005F   26183.51098837 -.00000079  00000+0  13985-3 0  9991","l2":"2 39077  52.0062 234.5721 0000119   6.3253 353.7615 12.62263885617802","cat":"communications"},{"name":"GLOBALSTAR M087","l1":"1 52888U 22064A   26183.20742044 -.00000100  00000+0  19810-4 0  9992","l2":"2 52888  52.0011  16.7246 0000930  66.5498 293.5466 12.62269302193032","cat":"communications"}]